[{"OBJECT_ID":"1993-036BUM","OBJECT_NAME":"COSMOS 2251 DEB","NORAD_CAT_ID":"39582","OBJECT_TYPE":"DEBRIS","PERIOD":"98.544","INCLINATION":"74.0199","ECCENTRICITY":"0.00710580","MEAN_MOTION":"14.61280187","TLE_LINE1":"1 39582U 93036BUM 21271.75460995  .00001572  00000-0  31334-3 0  9998","TLE_LINE2":"2 39582  74.0199 310.1098 0071058  79.3517 281.5642 14.61280187479235"},{"OBJECT_ID":"1993-036BUN","OBJECT_NAME":"COSMOS 2251 DEB","NORAD_CAT_ID":"39583","OBJECT_TYPE":"DEBRIS","PERIOD":"100.399","INCLINATION":"73.9372","ECCENTRICITY":"0.02014790","MEAN_MOTION":"14.34270827","TLE_LINE1":"1 39583U 93036BUN 21271.64488177  .00001433  00000-0  41526-3 0  9999","TLE_LINE2":"2 39583  73.9372 241.7226 0201479 332.1580  26.8899 14.34270827564274"},{"OBJECT_ID":"1993-036BUP","OBJECT_NAME":"COSMOS 2251 DEB","NORAD_CAT_ID":"39584","OBJECT_TYPE":"DEBRIS","PERIOD":"97.603","INCLINATION":"74.0958","ECCENTRICITY":"0.00400880","MEAN_MOTION":"14.75361235","TLE_LINE1":"1 39584U 93036BUP 21272.23697110  .00005553  00000-0  81213-3 0  9999","TLE_LINE2":"2 39584  74.0958 253.0190 0040088  28.7925 342.4228 14.75361235420847"},{"OBJECT_ID":"1993-036BUQ","OBJECT_NAME":"COSMOS 2251 DEB","NORAD_CAT_ID":"39585","OBJECT_TYPE":"DEBRIS","PERIOD":"99.067","INCLINATION":"74.0440","ECCENTRICITY":"0.00715640","MEAN_MOTION":"14.53557239","TLE_LINE1":"1 39585U 93036BUQ 21271.44993151  .00000199  00000-0  52857-4 0  9990","TLE_LINE2":"2 39585  74.0440 331.1704 0071564 122.4384 238.3726 14.53557239621663"},{"OBJECT_ID":"1993-036BUR","OBJECT_NAME":"COSMOS 2251 DEB","NORAD_CAT_ID":"39586","OBJECT_TYPE":"DEBRIS","PERIOD":"101.616","INCLINATION":"74.0096","ECCENTRICITY":"0.01068800","MEAN_MOTION":"14.17096559","TLE_LINE1":"1 39586U 93036BUR 21268.82015245  .00000094  00000-0  56212-4 0  9991","TLE_LINE2":"2 39586  74.0096  99.7189 0106880 229.1619 143.4724 14.17096559391471"},{"OBJECT_ID":"1993-036BUS","OBJECT_NAME":"COSMOS 2251 DEB","NORAD_CAT_ID":"39587","OBJECT_TYPE":"DEBRIS","PERIOD":"95.743","INCLINATION":"74.0114","ECCENTRICITY":"0.01042400","MEAN_MOTION":"15.04019661","TLE_LINE1":"1 39587U 93036BUS 21270.98637332  .00003375  00000-0  21959-3 0  9993","TLE_LINE2":"2 39587  74.0114 142.7555 0104240 266.9683  91.9573 15.04019661415200"},{"OBJECT_ID":"1993-036BUT","OBJECT_NAME":"COSMOS 2251 DEB","NORAD_CAT_ID":"39588","OBJECT_TYPE":"DEBRIS","PERIOD":"99.818","INCLINATION":"74.1307","ECCENTRICITY":"0.00800500","MEAN_MOTION":"14.42632034","TLE_LINE1":"1 39588U 93036BUT 21272.31061637  .00001263  00000-0  37374-3 0  9994","TLE_LINE2":"2 39588  74.1307 258.0652 0080050 233.8333 190.7545 14.42632034503562"},{"OBJECT_ID":"1993-036BUU","OBJECT_NAME":"COSMOS 2251 DEB","NORAD_CAT_ID":"39589","OBJECT_TYPE":"DEBRIS","PERIOD":"95.639","INCLINATION":"74.0026","ECCENTRICITY":"0.00184300","MEAN_MOTION":"15.05667596","TLE_LINE1":"1 39589U 93036BUU 21271.56330115  .00027514  00000-0  18924-2 0  9997","TLE_LINE2":"2 39589  74.0026  12.1788 0018430 142.2767 230.6152 15.05667596631804"},{"OBJECT_ID":"1993-036BUV","OBJECT_NAME":"COSMOS 2251 DEB","NORAD_CAT_ID":"39590","OBJECT_TYPE":"DEBRIS","PERIOD":"98.750","INCLINATION":"74.0300","ECCENTRICITY":"0.00170270","MEAN_MOTION":"14.58231572","TLE_LINE1":"1 39590U 93036BUV 21270.73793003  .00001952  00000-0  42819-3 0  9995","TLE_LINE2":"2 39590  74.0300  47.5632 0017027 114.3234 310.9885 14.58231572402068"},{"OBJECT_ID":"1993-036BUW","OBJECT_NAME":"COSMOS 2251 DEB","NORAD_CAT_ID":"39591","OBJECT_TYPE":"DEBRIS","PERIOD":"100.251","INCLINATION":"74.0235","ECCENTRICITY":"0.00324180","MEAN_MOTION":"14.36395782","TLE_LINE1":"1 39591U 93036BUW 21270.51886955  .00000288  00000-0  10680-3 0  9993","TLE_LINE2":"2 39591  74.0235 202.8353 0032418 325.0742 152.8781 14.36395782396721"},{"OBJECT_ID":"1970-025QT","OBJECT_NAME":"THORAD AGENA D DEB","NORAD_CAT_ID":"39592","OBJECT_TYPE":"DEBRIS","PERIOD":"106.355","INCLINATION":"100.0379","ECCENTRICITY":"0.00046680","MEAN_MOTION":"13.53961932","TLE_LINE1":"1 39592U 70025QT  21271.40990182  .00000484  00000-0  78355-3 0  9995","TLE_LINE2":"2 39592 100.0379 224.4447 0004668  11.8412 348.2832 13.53961932375645"},{"OBJECT_ID":"1997-051AAG","OBJECT_NAME":"IRIDIUM 33 DEB","NORAD_CAT_ID":"39594","OBJECT_TYPE":"DEBRIS","PERIOD":"99.418","INCLINATION":"86.4089","ECCENTRICITY":"0.00096370","MEAN_MOTION":"14.48434719","TLE_LINE1":"1 39594U 97051AAG 21271.93526852  .00001485  00000-0  39090-3 0  9997","TLE_LINE2":"2 39594  86.4089 340.9441 0009637 343.0935  16.9946 14.48434719414092"},{"OBJECT_ID":"1997-051AAH","OBJECT_NAME":"IRIDIUM 33 DEB","NORAD_CAT_ID":"39595","OBJECT_TYPE":"DEBRIS","PERIOD":"97.877","INCLINATION":"86.3711","ECCENTRICITY":"0.00721390","MEAN_MOTION":"14.71239710","TLE_LINE1":"1 39595U 97051AAH 21271.40100190  .00005859  00000-0  90833-3 0  9994","TLE_LINE2":"2 39595  86.3711 309.1634 0072139 190.6336 169.3360 14.71239710456531"},{"OBJECT_ID":"1999-057TA","OBJECT_NAME":"CBERS 1 DEB","NORAD_CAT_ID":"39596","OBJECT_TYPE":"DEBRIS","PERIOD":"98.160","INCLINATION":"98.3892","ECCENTRICITY":"0.00063250","MEAN_MOTION":"14.66996813","TLE_LINE1":"1 39596U 99057TA  21271.83791289  .00005373  00000-0  96735-3 0  9993","TLE_LINE2":"2 39596  98.3892 272.4718 0006325  21.7012 338.4458 14.66996813455252"},{"OBJECT_ID":"1979-095CD","OBJECT_NAME":"METEOR 2-5 DEB","NORAD_CAT_ID":"39602","OBJECT_TYPE":"DEBRIS","PERIOD":"101.330","INCLINATION":"81.2088","ECCENTRICITY":"0.00239300","MEAN_MOTION":"14.21092700","TLE_LINE1":"1 39602U 79095CD  21270.14639179  .00001819  00000-0  83008-3 0  9993","TLE_LINE2":"2 39602  81.2088  64.1744 0023930 306.7501  53.1478 14.21092700422949"},{"OBJECT_ID":"1979-095CE","OBJECT_NAME":"METEOR 2-5 DEB","NORAD_CAT_ID":"39603","OBJECT_TYPE":"DEBRIS","PERIOD":"101.750","INCLINATION":"81.2122","ECCENTRICITY":"0.00115470","MEAN_MOTION":"14.15234756","TLE_LINE1":"1 39603U 79095CE  21270.80830388  .00001299  00000-0  66199-3 0  9996","TLE_LINE2":"2 39603  81.2122  83.4874 0011547 354.1712   5.9325 14.15234756421788"},{"OBJECT_ID":"1979-095CF","OBJECT_NAME":"METEOR 2-5 DEB","NORAD_CAT_ID":"39604","OBJECT_TYPE":"DEBRIS","PERIOD":"96.778","INCLINATION":"81.1978","ECCENTRICITY":"0.00083270","MEAN_MOTION":"14.87948349","TLE_LINE1":"1 39604U 79095CF  21271.28279133  .00011443  00000-0  12449-2 0  9995","TLE_LINE2":"2 39604  81.1978 273.9960 0008327 219.2416 152.9822 14.87948349423138"},{"OBJECT_ID":"1979-095CG","OBJECT_NAME":"METEOR 2-5 DEB","NORAD_CAT_ID":"39605","OBJECT_TYPE":"DEBRIS","PERIOD":"101.410","INCLINATION":"81.1977","ECCENTRICITY":"0.00126640","MEAN_MOTION":"14.19973405","TLE_LINE1":"1 39605U 79095CG  21271.15411053  .00001868  00000-0  87299-3 0  9997","TLE_LINE2":"2 39605  81.1977  56.6581 0012664 319.2122 216.4211 14.19973405406019"},{"OBJECT_ID":"1979-095CH","OBJECT_NAME":"METEOR 2-5 DEB","NORAD_CAT_ID":"39606","OBJECT_TYPE":"DEBRIS","PERIOD":"101.373","INCLINATION":"81.1961","ECCENTRICITY":"0.00147230","MEAN_MOTION":"14.20500874","TLE_LINE1":"1 39606U 79095CH  21266.65599906  .00001356  00000-0  62564-3 0  9991","TLE_LINE2":"2 39606  81.1961  52.1396 0014723 257.4980 102.4550 14.20500874401867"},{"OBJECT_ID":"1979-095CK","OBJECT_NAME":"METEOR 2-5 DEB","NORAD_CAT_ID":"39608","OBJECT_TYPE":"DEBRIS","PERIOD":"101.471","INCLINATION":"81.2074","ECCENTRICITY":"0.00118000","MEAN_MOTION":"14.19121791","TLE_LINE1":"1 39608U 79095CK  21271.15717265  .00001115  00000-0  52691-3 0  9997","TLE_LINE2":"2 39608  81.2074  60.7476 0011800 340.7775  19.2953 14.19121791356721"},{"OBJECT_ID":"1965-027FS","OBJECT_NAME":"OPS 4682 DEB","NORAD_CAT_ID":"39609","OBJECT_TYPE":"DEBRIS","PERIOD":"111.018","INCLINATION":"90.2731","ECCENTRICITY":"0.00251980","MEAN_MOTION":"12.97082716","TLE_LINE1":"1 39609U 65027FS  21271.44574752 -.00000265  00000-0 -94016-3 0  9996","TLE_LINE2":"2 39609  90.2731 334.6142 0025198 267.4107 104.9218 12.97082716372893"},{"OBJECT_ID":"1991-050S","OBJECT_NAME":"ERS 1 DEB","NORAD_CAT_ID":"39610","OBJECT_TYPE":"DEBRIS","PERIOD":"98.931","INCLINATION":"98.4978","ECCENTRICITY":"0.00250870","MEAN_MOTION":"14.55557906","TLE_LINE1":"1 39610U 91050S   21272.37438972  .00003484  00000-0  80699-3 0  9995","TLE_LINE2":"2 39610  98.4978 256.5938 0025087 150.4314 209.8308 14.55557906404795"},{"OBJECT_ID":"2014-014C","OBJECT_NAME":"CZ-2C DEB","NORAD_CAT_ID":"39626","OBJECT_TYPE":"DEBRIS","PERIOD":"99.050","INCLINATION":"98.0650","ECCENTRICITY":"0.01052760","MEAN_MOTION":"14.53809320","TLE_LINE1":"1 39626U 14014C   21271.43318001  .00001447  00000-0  33090-3 0  9993","TLE_LINE2":"2 39626  98.0650 230.8585 0105276  30.2921 330.4304 14.53809320397196"},{"OBJECT_ID":"2014-014D","OBJECT_NAME":"CZ-2C DEB","NORAD_CAT_ID":"39627","OBJECT_TYPE":"DEBRIS","PERIOD":"101.170","INCLINATION":"98.0799","ECCENTRICITY":"0.01811950","MEAN_MOTION":"14.23353458","TLE_LINE1":"1 39627U 14014D   21271.47248984  .00000499  00000-0  20098-3 0  9990","TLE_LINE2":"2 39627  98.0799 139.5546 0181195  30.3226 330.8289 14.23353458389084"},{"OBJECT_ID":"2014-014E","OBJECT_NAME":"CZ-2C DEB","NORAD_CAT_ID":"39628","OBJECT_TYPE":"DEBRIS","PERIOD":"99.020","INCLINATION":"98.2735","ECCENTRICITY":"0.01039910","MEAN_MOTION":"14.54250910","TLE_LINE1":"1 39628U 14014E   21272.17802871  .00001156  00000-0  26455-3 0  9994","TLE_LINE2":"2 39628  98.2735 354.7475 0103991 108.0760 253.1798 14.54250910397537"},{"OBJECT_ID":"2014-014F","OBJECT_NAME":"CZ-2C DEB","NORAD_CAT_ID":"39629","OBJECT_TYPE":"DEBRIS","PERIOD":"101.088","INCLINATION":"98.4451","ECCENTRICITY":"0.01775360","MEAN_MOTION":"14.24505182","TLE_LINE1":"1 39629U 14014F   21271.41725081  .00000638  00000-0  24915-3 0  9991","TLE_LINE2":"2 39629  98.4451 243.1317 0177536  85.7230 276.4214 14.24505182389410"},{"OBJECT_ID":"2014-015C","OBJECT_NAME":"DMSP 5D-3 F19 DEB","NORAD_CAT_ID":"39632","OBJECT_TYPE":"DEBRIS","PERIOD":"101.587","INCLINATION":"98.7135","ECCENTRICITY":"0.00057500","MEAN_MOTION":"14.17500887","TLE_LINE1":"1 39632U 14015C   21272.03261668  .00000521  00000-0  27798-3 0  9994","TLE_LINE2":"2 39632  98.7135 286.6640 0005750  68.0664 292.1121 14.17500887387150"}]